NOAA 17                 
1 27453U 02032A   26095.89637721  .00000286  00000+0  13827-3 0  9992
2 27453  98.8590  60.8224 0011219 196.3062 163.7758 14.26205833236681
NOAA 18                 
1 28654U 05018A   26095.86100490  .00000104  00000+0  78119-4 0  9993
2 28654  98.8123 176.5831 0014141   1.1774 358.9429 14.13716778 76097
NOAA 19                 
1 33591U 09005A   26095.84703847  .00000094  00000+0  74115-4 0  9992
2 33591  98.9559 166.6571 0012969 231.9558 128.0445 14.13462590884267
SUOMI NPP               
1 37849U 11061A   26095.80996384  .00000143  00000+0  89006-4 0  9993
2 37849  98.7904  37.2017 0002064 141.4958 218.6365 14.19501375748178
NOAA 20 (JPSS-1)        
1 43013U 17073A   26095.82415245  .00000110  00000+0  72922-4 0  9999
2 43013  98.7725  35.9469 0002046 101.0324 259.1082 14.19543528434202
NOAA 21 (JPSS-2)        
1 54234U 22150A   26095.85855424  .00000129  00000+0  82082-4 0  9996
2 54234  98.7586  35.8184 0002608  59.0198 301.1234 14.19559802176282
