[{"OBJECT_NAME":"NOAA 17","OBJECT_ID":"2002-032A","EPOCH":"2026-04-05T21:30:46.990944","MEAN_MOTION":14.26205833,"ECCENTRICITY":0.0011219,"INCLINATION":98.859,"RA_OF_ASC_NODE":60.8224,"ARG_OF_PERICENTER":196.3062,"MEAN_ANOMALY":163.7758,"EPHEMERIS_TYPE":0,"CLASSIFICATION_TYPE":"U","NORAD_CAT_ID":27453,"ELEMENT_SET_NO":999,"REV_AT_EPOCH":23668,"BSTAR":0.00013827,"MEAN_MOTION_DOT":2.86e-6,"MEAN_MOTION_DDOT":0},{"OBJECT_NAME":"NOAA 18","OBJECT_ID":"2005-018A","EPOCH":"2026-04-05T20:39:50.823360","MEAN_MOTION":14.13716778,"ECCENTRICITY":0.0014141,"INCLINATION":98.8123,"RA_OF_ASC_NODE":176.5831,"ARG_OF_PERICENTER":1.1774,"MEAN_ANOMALY":358.9429,"EPHEMERIS_TYPE":0,"CLASSIFICATION_TYPE":"U","NORAD_CAT_ID":28654,"ELEMENT_SET_NO":999,"REV_AT_EPOCH":7609,"BSTAR":7.8119e-5,"MEAN_MOTION_DOT":1.04e-6,"MEAN_MOTION_DDOT":0},{"OBJECT_NAME":"NOAA 19","OBJECT_ID":"2009-005A","EPOCH":"2026-04-05T20:19:44.123808","MEAN_MOTION":14.1346259,"ECCENTRICITY":0.0012969,"INCLINATION":98.9559,"RA_OF_ASC_NODE":166.6571,"ARG_OF_PERICENTER":231.9558,"MEAN_ANOMALY":128.0445,"EPHEMERIS_TYPE":0,"CLASSIFICATION_TYPE":"U","NORAD_CAT_ID":33591,"ELEMENT_SET_NO":999,"REV_AT_EPOCH":88426,"BSTAR":7.4115e-5,"MEAN_MOTION_DOT":9.4e-7,"MEAN_MOTION_DDOT":0},{"OBJECT_NAME":"SUOMI NPP","OBJECT_ID":"2011-061A","EPOCH":"2026-04-05T19:26:20.875776","MEAN_MOTION":14.19501375,"ECCENTRICITY":0.0002064,"INCLINATION":98.7904,"RA_OF_ASC_NODE":37.2017,"ARG_OF_PERICENTER":141.4958,"MEAN_ANOMALY":218.6365,"EPHEMERIS_TYPE":0,"CLASSIFICATION_TYPE":"U","NORAD_CAT_ID":37849,"ELEMENT_SET_NO":999,"REV_AT_EPOCH":74817,"BSTAR":8.9006e-5,"MEAN_MOTION_DOT":1.43e-6,"MEAN_MOTION_DDOT":0},{"OBJECT_NAME":"NOAA 20 (JPSS-1)","OBJECT_ID":"2017-073A","EPOCH":"2026-04-05T19:46:46.771680","MEAN_MOTION":14.19543528,"ECCENTRICITY":0.0002046,"INCLINATION":98.7725,"RA_OF_ASC_NODE":35.9469,"ARG_OF_PERICENTER":101.0324,"MEAN_ANOMALY":259.1082,"EPHEMERIS_TYPE":0,"CLASSIFICATION_TYPE":"U","NORAD_CAT_ID":43013,"ELEMENT_SET_NO":999,"REV_AT_EPOCH":43420,"BSTAR":7.2922e-5,"MEAN_MOTION_DOT":1.1e-6,"MEAN_MOTION_DDOT":0},{"OBJECT_NAME":"NOAA 21 (JPSS-2)","OBJECT_ID":"2022-150A","EPOCH":"2026-04-05T20:36:19.086336","MEAN_MOTION":14.19559802,"ECCENTRICITY":0.0002608,"INCLINATION":98.7586,"RA_OF_ASC_NODE":35.8184,"ARG_OF_PERICENTER":59.0198,"MEAN_ANOMALY":301.1234,"EPHEMERIS_TYPE":0,"CLASSIFICATION_TYPE":"U","NORAD_CAT_ID":54234,"ELEMENT_SET_NO":999,"REV_AT_EPOCH":17628,"BSTAR":8.2082e-5,"MEAN_MOTION_DOT":1.29e-6,"MEAN_MOTION_DDOT":0}]
